COSMOS 2433 (720)       
1 32275C 07052A   22357.99979167  .00000000  00000-0  00000-0 0  3577
2 32275  66.0683 358.3791 0005161 260.9484 333.5695  2.13103802    17
COSMOS 2432 (719)       
1 32276C 07052B   22357.99979167  .00000000  00000-0  00000-0 0  3578
2 32276  66.0822 358.4833 0011687 316.9205 225.3611  2.13103138    12
COSMOS 2434 (721)       
1 32393C 07065A   22357.99979167  .00000000  00000-0  00000-0 0  3572
2 32393  64.3565 234.9631 0004391  71.4624  53.2669  2.13103186    17
COSMOS 2436 (723)       
1 32395C 07065C   22357.99979167  .00000000  00000-0  00000-0 0  3574
2 32395  64.3652 235.0222 0016847   5.8040 254.6328  2.13102676    18
COSMOS 2456 (730)       
1 36111C 09070A   22357.99979167 -.00000000  00000-0  00000-0 0  3573
2 36111  64.4070 114.5446 0002330 302.6466 344.9999  2.13098663    11
COSMOS 2457 (733)       
1 36112C 09070B   22357.99979167 -.00000000  00000-0  00000-0 0  3574
2 36112  64.3906 114.4160 0006205 161.8868 254.5538  2.13100852    16
COSMOS 2460 (732)       
1 36402C 10007C   22357.99979167  .00000000  00000-0  00000-0 0  3577
2 36402  65.9364 357.1369 0002585 282.0182 119.9172  2.13106045    10
COSMOS 2476 (744)       
1 37867C 11064A   22357.99979167 -.00000000  00000-0  00000-0 0  3578
2 37867  64.6923 115.9744 0021951 232.4689 322.2991  2.13101234    12
COSMOS 2477 (745)       
1 37868C 11064B   22357.99979167 -.00000000  00000-0  00000-0 0  3579
2 37868  64.6999 116.0412 0019212 232.6770 140.1078  2.13101098    11
COSMOS 2475 (743)       
1 37869C 11064C   22357.99979167 -.00000000  00000-0  00000-0 0  3570
2 37869  64.7071 116.0510 0023032 251.0672  79.9307  2.13101295    17
COSMOS 2485 (747)       
1 39155C 13019A   22357.99979167 -.00000000  00000-0  00000-0 0  3572
2 39155  64.8547 116.4435 0022431 228.5254  10.6378  2.13101324    16
COSMOS 2492 (754)       
1 39620C 14012A   22357.99979167  .00000000  00000-0  00000-0 0  3572
2 39620  65.8218 356.7916 0014810 315.2267 318.2565  2.13102801    18
COSMOS 2500 (755)       
1 40001C 14032A   22357.99979167  .00000000  00000-0  00000-0 0  3579
2 40001  65.7608 356.6385 0007424 223.3739 268.2282  2.13102163    11
COSMOS 2501 (702K)      
1 40315C 14075A   22357.99979167  .00000000  00000-0  00000-0 0  3574
2 40315  63.6617 234.5407 0017115 206.2380  94.2777  2.13101129    12
COSMOS 2514 (751)       
1 41330C 16008A   22357.99979167  .00000000  00000-0  00000-0 0  3570
2 41330  65.5598 356.2833 0011482 224.5481  91.2294  2.13102336    12
COSMOS 2522 (752)       
1 42939C 17055A   22357.99979167  .00000000  00000-0  00000-0 0  3579
2 42939  64.1218 235.3207 0005605 243.2057 192.8766  2.13102041    16
COSMOS 2527 (756)       
1 43508C 18053A   22357.99979167 -.00000000  00000-0  00000-0 0  3572
2 43508  65.0171 116.4832 0008437 220.3831 247.7049  2.13102086    15
COSMOS 2529 (757)       
1 43687C 18086A   22357.99979167  .00000000  00000-0  00000-0 0  3575
2 43687  64.3370 235.6879 0007737 273.1485 118.4218  2.13101986    14
COSMOS 2534 (758)       
1 44299C 19030A   22357.99979167  .00000000  00000-0  00000-0 0  3575
2 44299  64.4091 235.5905 0010796 294.6062 231.3528  2.13101958    10
COSMOS 2544 (759)       
1 44850C 19088A   22357.99979167 -.00000000  00000-0  00000-0 0  3572
2 44850  65.0026 116.3313 0012144 251.5396 259.8550  2.13101749    16
COSMOS 2545 (760)       
1 45358C 20018A   22357.99979167  .00000000  00000-0  00000-0 0  3570
2 45358  64.8990 356.7361 0011456 254.3406 106.3027  2.13102334    14
COSMOS 2547 (705K)      
1 46805C 20075A   22357.99979167  .00000000  00000-0  00000-0 0  3571
2 46805  64.6348 235.0710 0005623 244.8781 329.4151  2.13102977    12
COSMOS 2559 (707K)      
1 54031C 22130A   22357.99979167  .00000000  00000-0  00000-0 0  3575
2 54031  64.7766 359.0601 0007322 235.7202 261.0475  2.13100989    19
COSMOS 2564 (761)       
1 54377C 22161A   22357.99979167  .00000000  00000-0  00000-0 0  3572
2 54377  64.7749 235.0782 0006962 216.7438 130.1057  2.13102135    12
